start=new Date('2023-04-20T00:00:00.000Z').valueOf();
sats=[{"TLE_LINE2":"2 52132  53.2172 124.9579 0001491  99.1527 260.9633 15.08833234 61676","MEAN_MOTION_DOT":"-0.00000281","MEAN_MOTION_DDOT":"0.0000000000000","LAUNCH_DATE":"2022-03-19","APOAPSIS":"540.798","SITE":"AFETR","MEAN_MOTION":"15.08833234","RCS_SIZE":"LARGE","EPHEMERIS_TYPE":"0","PERIAPSIS":"538.735","SEMIMAJOR_AXIS":"6917.901","MEAN_ANOMALY":"260.9633","ELEMENT_SET_NO":"999","CENTER_NAME":"EARTH","OBJECT_TYPE":"PAYLOAD","TLE_LINE1":"1 52132U 22029AW  23109.74311111 -.00000281  00000-0  46195-6 0  9995","GP_ID":"230396259","NORAD_CAT_ID":"52132","RA_OF_ASC_NODE":"124.9579","COUNTRY_CODE":"US","ARG_OF_PERICENTER":"99.1527","REF_FRAME":"TEME","FILE":"3890520","EPOCH":"2023-04-19T17:50:04.799904","PERIOD":"95.438","CLASSIFICATION_TYPE":"U","OBJECT_ID":"2022-029AW","DECAY_DATE":null,"INCLINATION":"53.2172","REV_AT_EPOCH":"6167","MEAN_ELEMENT_THEORY":"SGP4","TIME_SYSTEM":"UTC","ECCENTRICITY":"0.00014910","BSTAR":"0.00000046195000","OBJECT_NAME":"STARLINK-3718"},{"SEMIMAJOR_AXIS":"6917.879","ELEMENT_SET_NO":"999","MEAN_ANOMALY":"277.2130","CENTER_NAME":"EARTH","GP_ID":"230366548","TLE_LINE1":"1 52133U 22029AX  23109.46342333  .00000919  00000-0  75802-4 0  9997","OBJECT_TYPE":"PAYLOAD","NORAD_CAT_ID":"52133","TLE_LINE2":"2 52133  53.2150 126.2136 0001379  82.9019 277.2130 15.08840322 61633","MEAN_MOTION_DOT":"0.00000919","MEAN_MOTION_DDOT":"0.0000000000000","LAUNCH_DATE":"2022-03-19","APOAPSIS":"540.698","SITE":"AFETR","MEAN_MOTION":"15.08840322","PERIAPSIS":"538.790","EPHEMERIS_TYPE":"0","RCS_SIZE":"LARGE","CLASSIFICATION_TYPE":"U","OBJECT_ID":"2022-029AX","PERIOD":"95.438","INCLINATION":"53.2150","DECAY_DATE":null,"REV_AT_EPOCH":"6163","TIME_SYSTEM":"UTC","ECCENTRICITY":"0.00013790","MEAN_ELEMENT_THEORY":"SGP4","BSTAR":"0.00007580200000","OBJECT_NAME":"STARLINK-3707","RA_OF_ASC_NODE":"126.2136","ARG_OF_PERICENTER":"82.9019","COUNTRY_CODE":"US","REF_FRAME":"TEME","EPOCH":"2023-04-19T11:07:19.775712","FILE":"3890383"},{"EPOCH":"2023-04-19T17:34:10.206048","FILE":"3890520","REF_FRAME":"TEME","ARG_OF_PERICENTER":"104.9987","COUNTRY_CODE":"US","RA_OF_ASC_NODE":"125.0061","OBJECT_NAME":"STARLINK-3721","BSTAR":"0.00006172000000","TIME_SYSTEM":"UTC","ECCENTRICITY":"0.00015530","MEAN_ELEMENT_THEORY":"SGP4","REV_AT_EPOCH":"6167","DECAY_DATE":null,"INCLINATION":"53.2159","OBJECT_ID":"2022-029AY","CLASSIFICATION_TYPE":"U","PERIOD":"95.437","PERIAPSIS":"538.667","RCS_SIZE":"LARGE","EPHEMERIS_TYPE":"0","MEAN_MOTION":"15.08841177","SITE":"AFETR","APOAPSIS":"540.816","LAUNCH_DATE":"2022-03-19","MEAN_MOTION_DDOT":"0.0000000000000","TLE_LINE2":"2 52134  53.2159 125.0061 0001553 104.9987 255.1177 15.08841177 61679","MEAN_MOTION_DOT":"0.00000694","NORAD_CAT_ID":"52134","TLE_LINE1":"1 52134U 22029AY  23109.73206257  .00000694  00000-0  61720-4 0  9996","GP_ID":"230394758","OBJECT_TYPE":"PAYLOAD","CENTER_NAME":"EARTH","ELEMENT_SET_NO":"999","MEAN_ANOMALY":"255.1177","SEMIMAJOR_AXIS":"6917.877"},{"RA_OF_ASC_NODE":"126.8542","REF_FRAME":"TEME","ARG_OF_PERICENTER":"86.4156","COUNTRY_CODE":"US","FILE":"3890383","EPOCH":"2023-04-19T07:40:39.761760","DECAY_DATE":null,"INCLINATION":"53.2178","PERIOD":"95.437","CLASSIFICATION_TYPE":"U","OBJECT_ID":"2022-029AZ","MEAN_ELEMENT_THEORY":"SGP4","ECCENTRICITY":"0.00016030","TIME_SYSTEM":"UTC","REV_AT_EPOCH":"6161","OBJECT_NAME":"STARLINK-3729","BSTAR":"0.00010846000000","MEAN_MOTION_DDOT":"0.0000000000000","TLE_LINE2":"2 52135  53.2178 126.8542 0001603  86.4156 273.7020 15.08843460 61616","MEAN_MOTION_DOT":"0.00001439","APOAPSIS":"540.844","LAUNCH_DATE":"2022-03-19","MEAN_MOTION":"15.08843460","SITE":"AFETR","EPHEMERIS_TYPE":"0","RCS_SIZE":"LARGE","PERIAPSIS":"538.626","MEAN_ANOMALY":"273.7020","ELEMENT_SET_NO":"999","SEMIMAJOR_AXIS":"6917.870","CENTER_NAME":"EARTH","OBJECT_TYPE":"PAYLOAD","GP_ID":"230367548","TLE_LINE1":"1 52135U 22029AZ  23109.31990465  .00001439  00000-0  10846-3 0  9992","NORAD_CAT_ID":"52135"},{"PERIAPSIS":"538.757","EPHEMERIS_TYPE":"0","RCS_SIZE":"LARGE","MEAN_MOTION":"15.08838271","SITE":"AFETR","APOAPSIS":"540.745","LAUNCH_DATE":"2022-03-19","MEAN_MOTION_DDOT":"0.0000000000000","TLE_LINE2":"2 52136  53.2145 126.2296 0001437  98.6654 261.4501 15.08838271 61638","MEAN_MOTION_DOT":"0.00001445","NORAD_CAT_ID":"52136","TLE_LINE1":"1 52136U 22029BA  23109.45974825  .00001445  00000-0  10885-3 0  9990","GP_ID":"230367790","OBJECT_TYPE":"PAYLOAD","CENTER_NAME":"EARTH","ELEMENT_SET_NO":"999","MEAN_ANOMALY":"261.4501","SEMIMAJOR_AXIS":"6917.886","EPOCH":"2023-04-19T11:02:02.248800","FILE":"3890383","REF_FRAME":"TEME","COUNTRY_CODE":"US","ARG_OF_PERICENTER":"98.6654","RA_OF_ASC_NODE":"126.2296","OBJECT_NAME":"STARLINK-3720","BSTAR":"0.00010885000000","TIME_SYSTEM":"UTC","ECCENTRICITY":"0.00014370","MEAN_ELEMENT_THEORY":"SGP4","REV_AT_EPOCH":"6163","INCLINATION":"53.2145","DECAY_DATE":null,"OBJECT_ID":"2022-029BA","CLASSIFICATION_TYPE":"U","PERIOD":"95.438"},{"NORAD_CAT_ID":"52137","OBJECT_TYPE":"PAYLOAD","TLE_LINE1":"1 52137U 22029BB  23109.77990724  .00001863  00000-0  13508-3 0  9991","GP_ID":"230396510","CENTER_NAME":"EARTH","MEAN_ANOMALY":"271.1847","ELEMENT_SET_NO":"999","SEMIMAJOR_AXIS":"6917.875","RCS_SIZE":"LARGE","EPHEMERIS_TYPE":"0","PERIAPSIS":"538.655","MEAN_MOTION":"15.08841920","SITE":"AFETR","APOAPSIS":"540.824","LAUNCH_DATE":"2022-03-19","MEAN_MOTION_DDOT":"0.0000000000000","TLE_LINE2":"2 52137  53.2150 124.7907 0001568  88.9325 271.1847 15.08841920 61680","MEAN_MOTION_DOT":"0.00001863","OBJECT_NAME":"STARLINK-3733","BSTAR":"0.00013508000000","MEAN_ELEMENT_THEORY":"SGP4","ECCENTRICITY":"0.00015680","TIME_SYSTEM":"UTC","REV_AT_EPOCH":"6168","DECAY_DATE":null,"INCLINATION":"53.2150","PERIOD":"95.437","CLASSIFICATION_TYPE":"U","OBJECT_ID":"2022-029BB","FILE":"3890520","EPOCH":"2023-04-19T18:43:03.985536","REF_FRAME":"TEME","ARG_OF_PERICENTER":"88.9325","COUNTRY_CODE":"US","RA_OF_ASC_NODE":"124.7907"},{"NORAD_CAT_ID":"52138","TLE_LINE1":"1 52138U 22029BC  23109.45606294  .00000825  00000-0  69884-4 0  9999","GP_ID":"230366299","OBJECT_TYPE":"PAYLOAD","CENTER_NAME":"EARTH","ELEMENT_SET_NO":"999","MEAN_ANOMALY":"276.5081","SEMIMAJOR_AXIS":"6917.873","PERIAPSIS":"538.761","RCS_SIZE":"LARGE","EPHEMERIS_TYPE":"0","MEAN_MOTION":"15.08842546","SITE":"AFETR","APOAPSIS":"540.714","LAUNCH_DATE":"2022-03-19","MEAN_MOTION_DDOT":"0.0000000000000","TLE_LINE2":"2 52138  53.2152 126.2452 0001412  83.6072 276.5081 15.08842546 61633","MEAN_MOTION_DOT":"0.00000825","OBJECT_NAME":"STARLINK-3723","BSTAR":"0.00006988400000","ECCENTRICITY":"0.00014120","TIME_SYSTEM":"UTC","MEAN_ELEMENT_THEORY":"SGP4","REV_AT_EPOCH":"6163","DECAY_DATE":null,"INCLINATION":"53.2152","OBJECT_ID":"2022-029BC","CLASSIFICATION_TYPE":"U","PERIOD":"95.437","EPOCH":"2023-04-19T10:56:43.838016","FILE":"3890383","REF_FRAME":"TEME","COUNTRY_CODE":"US","ARG_OF_PERICENTER":"83.6072","RA_OF_ASC_NODE":"126.2452"},{"MEAN_MOTION_DOT":"0.00000246","TLE_LINE2":"2 52139  53.2155 134.8457 0001411  98.2765 261.8387 15.08837333 61530","MEAN_MOTION_DDOT":"0.0000000000000","LAUNCH_DATE":"2022-03-19","APOAPSIS":"540.730","SITE":"AFETR","MEAN_MOTION":"15.08837333","PERIAPSIS":"538.777","RCS_SIZE":"LARGE","EPHEMERIS_TYPE":"0","SEMIMAJOR_AXIS":"6917.889","ELEMENT_SET_NO":"999","MEAN_ANOMALY":"261.8387","CENTER_NAME":"EARTH","TLE_LINE1":"1 52139U 22029BD  23109.76794728  .00000246  00000-0  33523-4 0  9992","GP_ID":"230395009","OBJECT_TYPE":"PAYLOAD","NORAD_CAT_ID":"52139","RA_OF_ASC_NODE":"134.8457","ARG_OF_PERICENTER":"98.2765","COUNTRY_CODE":"US","REF_FRAME":"TEME","EPOCH":"2023-04-19T18:25:50.644992","FILE":"3890520","OBJECT_ID":"2022-029BD","CLASSIFICATION_TYPE":"U","PERIOD":"95.438","INCLINATION":"53.2155","DECAY_DATE":null,"REV_AT_EPOCH":"6153","TIME_SYSTEM":"UTC","ECCENTRICITY":"0.00014110","MEAN_ELEMENT_THEORY":"SGP4","BSTAR":"0.00003352300000","OBJECT_NAME":"STARLINK-3730"},{"PERIAPSIS":"538.708","RCS_SIZE":"LARGE","EPHEMERIS_TYPE":"0","SITE":"AFETR","MEAN_MOTION":"15.08840835","LAUNCH_DATE":"2022-03-19","APOAPSIS":"540.778","MEAN_MOTION_DOT":"0.00001476","TLE_LINE2":"2 52140  53.2148 124.8104 0001496  81.1165 278.9996 15.08840835 61682","MEAN_MOTION_DDOT":"0.0000000000000","NORAD_CAT_ID":"52140","GP_ID":"230396260","TLE_LINE1":"1 52140U 22029BE  23109.77622842  .00001476  00000-0  11081-3 0  9992","OBJECT_TYPE":"PAYLOAD","CENTER_NAME":"EARTH","SEMIMAJOR_AXIS":"6917.878","ELEMENT_SET_NO":"999","MEAN_ANOMALY":"278.9996","EPOCH":"2023-04-19T18:37:46.135488","FILE":"3890520","COUNTRY_CODE":"US","ARG_OF_PERICENTER":"81.1165","REF_FRAME":"TEME","RA_OF_ASC_NODE":"124.8104","BSTAR":"0.00011081000000","OBJECT_NAME":"STARLINK-3682","REV_AT_EPOCH":"6168","TIME_SYSTEM":"UTC","ECCENTRICITY":"0.00014960","MEAN_ELEMENT_THEORY":"SGP4","CLASSIFICATION_TYPE":"U","OBJECT_ID":"2022-029BE","PERIOD":"95.438","DECAY_DATE":null,"INCLINATION":"53.2148"},{"ARG_OF_PERICENTER":"88.6140","COUNTRY_CODE":"US","REF_FRAME":"TEME","RA_OF_ASC_NODE":"164.5367","FILE":"3890520","EPOCH":"2023-04-19T20:09:13.870368","REV_AT_EPOCH":"5511","MEAN_ELEMENT_THEORY":"SGP4","TIME_SYSTEM":"UTC","ECCENTRICITY":"0.00014390","PERIOD":"95.438","OBJECT_ID":"2022-041A","CLASSIFICATION_TYPE":"U","INCLINATION":"53.2166","DECAY_DATE":null,"BSTAR":"0.00003414000000","OBJECT_NAME":"STARLINK-3810","LAUNCH_DATE":"2022-04-21","APOAPSIS":"540.739","MEAN_MOTION_DOT":"0.00000255","TLE_LINE2":"2 52261  53.2166 164.5367 0001439  88.6140 271.5017 15.08840688 55110","MEAN_MOTION_DDOT":"0.0000000000000","RCS_SIZE":"LARGE","EPHEMERIS_TYPE":"0","PERIAPSIS":"538.748","SITE":"AFETR","MEAN_MOTION":"15.08840688","CENTER_NAME":"EARTH","SEMIMAJOR_AXIS":"6917.878","MEAN_ANOMALY":"271.5017","ELEMENT_SET_NO":"999","NORAD_CAT_ID":"52261","OBJECT_TYPE":"PAYLOAD","TLE_LINE1":"1 52261U 22041A   23109.83974387  .00000255  00000-0  34140-4 0  9997","GP_ID":"230396268"}];
